{
  "type": "FeatureCollection",
  "features": [
    {
      "type": "Feature",
      "properties": {
        "norad_id": 37280,
        "name": "COSMOS 2251 DEB",
        "group": "cosmos-2251-debris",
        "lat": 48.2130196258565,
        "lon": 78.9016197046776,
        "alt_km": 893.0791209425479,
        "timestamp": "2025-12-10T23:33:13.215319+00:00",
        "meta_object_name": "COSMOS 2251 DEB",
        "meta_object_id": "1993-036BHU",
        "meta_epoch": "2025-12-07T22:33:59.390208",
        "meta_mean_motion": 14.19261757,
        "meta_eccentricity": 0.01314572,
        "meta_inclination": 74.0315,
        "meta_ra_of_asc_node": 65.6486,
        "meta_arg_of_pericenter": 195.2525,
        "meta_mean_anomaly": 164.4641,
        "meta_ephemeris_type": 0,
        "meta_classification_type": "U",
        "meta_norad_cat_id": 37280,
        "meta_element_set_no": 999,
        "meta_rev_at_epoch": 57255,
        "meta_bstar": 0.0024447431,
        "meta_mean_motion_dot": 5.567e-05,
        "meta_mean_motion_ddot": 0,
        "tle_line1": "1 37280U 93036BHU 25341.94027072  .00005567  00000+0  24447-2 0  9992",
        "tle_line2": "2 37280  74.0315  65.6486 0131457 195.2525 164.4641 14.19261757572550"
      },
      "geometry": {
        "type": "Point",
        "coordinates": [
          78.9016197046776,
          48.2130196258565
        ]
      }
    },
    {
      "type": "Feature",
      "properties": {
        "norad_id": 37284,
        "name": "COSMOS 2251 DEB",
        "group": "cosmos-2251-debris",
        "lat": 73.34839235689428,
        "lon": -93.60468957699861,
        "alt_km": 934.3000822551603,
        "timestamp": "2025-12-10T23:33:13.215328+00:00",
        "meta_object_name": "COSMOS 2251 DEB",
        "meta_object_id": "1993-036BHY",
        "meta_epoch": "2025-12-05T19:06:47.225088",
        "meta_mean_motion": 14.12657303,
        "meta_eccentricity": 0.01604408,
        "meta_inclination": 74.0121,
        "meta_ra_of_asc_node": 169.0185,
        "meta_arg_of_pericenter": 322.3384,
        "meta_mean_anomaly": 52.3924,
        "meta_ephemeris_type": 0,
        "meta_classification_type": "U",
        "meta_norad_cat_id": 37284,
        "meta_element_set_no": 999,
        "meta_rev_at_epoch": 59077,
        "meta_bstar": 0.001984473,
        "meta_mean_motion_dot": 4.13e-05,
        "meta_mean_motion_ddot": 0,
        "tle_line1": "1 37284U 93036BHY 25339.79637992  .00004130  00000+0  19845-2 0  9995",
        "tle_line2": "2 37284  74.0121 169.0185 0160440 322.3384  52.3924 14.12657303590776"
      },
      "geometry": {
        "type": "Point",
        "coordinates": [
          -93.60468957699861,
          73.34839235689428
        ]
      }
    },
    {
      "type": "Feature",
      "properties": {
        "norad_id": 37292,
        "name": "COSMOS 2251 DEB",
        "group": "cosmos-2251-debris",
        "lat": -73.77696573937163,
        "lon": -25.07396104064689,
        "alt_km": 1010.1966077968627,
        "timestamp": "2025-12-10T23:33:13.215337+00:00",
        "meta_object_name": "COSMOS 2251 DEB",
        "meta_object_id": "1993-036BJG",
        "meta_epoch": "2025-12-02T14:04:30.366912",
        "meta_mean_motion": 14.03226454,
        "meta_eccentricity": 0.02102512,
        "meta_inclination": 74.129,
        "meta_ra_of_asc_node": 67.3453,
        "meta_arg_of_pericenter": 73.1105,
        "meta_mean_anomaly": 289.2966,
        "meta_ephemeris_type": 0,
        "meta_classification_type": "U",
        "meta_norad_cat_id": 37292,
        "meta_element_set_no": 999,
        "meta_rev_at_epoch": 59706,
        "meta_bstar": 0.0022453288,
        "meta_mean_motion_dot": 4.236e-05,
        "meta_mean_motion_ddot": 0,
        "tle_line1": "1 37292U 93036BJG 25336.58646258  .00004236  00000+0  22453-2 0  9999",
        "tle_line2": "2 37292  74.1290  67.3453 0210251  73.1105 289.2966 14.03226454597064"
      },
      "geometry": {
        "type": "Point",
        "coordinates": [
          -25.07396104064689,
          -73.77696573937163
        ]
      }
    },
    {
      "type": "Feature",
      "properties": {
        "norad_id": 37295,
        "name": "COSMOS 2251 DEB",
        "group": "cosmos-2251-debris",
        "lat": 20.809837912821333,
        "lon": 98.75588264358765,
        "alt_km": 657.4327475534355,
        "timestamp": "2025-12-10T23:33:13.215347+00:00",
        "meta_object_name": "COSMOS 2251 DEB",
        "meta_object_id": "1993-036BJK",
        "meta_epoch": "2025-12-10T06:27:05.450112",
        "meta_mean_motion": 14.65213033,
        "meta_eccentricity": 0.0043773,
        "meta_inclination": 74.0068,
        "meta_ra_of_asc_node": 286.3868,
        "meta_arg_of_pericenter": 106.4238,
        "meta_mean_anomaly": 254.1748,
        "meta_ephemeris_type": 0,
        "meta_classification_type": "U",
        "meta_norad_cat_id": 37295,
        "meta_element_set_no": 999,
        "meta_rev_at_epoch": 82268,
        "meta_bstar": 0.00088834,
        "meta_mean_motion_dot": 4.823e-05,
        "meta_mean_motion_ddot": 0,
        "tle_line1": "1 37295U 93036BJK 25344.26881308  .00004823  00000+0  88834-3 0  9991",
        "tle_line2": "2 37295  74.0068 286.3868 0043773 106.4238 254.1748 14.65213033822687"
      },
      "geometry": {
        "type": "Point",
        "coordinates": [
          98.75588264358765,
          20.809837912821333
        ]
      }
    },
    {
      "type": "Feature",
      "properties": {
        "norad_id": 37305,
        "name": "COSMOS 2251 DEB",
        "group": "cosmos-2251-debris",
        "lat": 53.41516363182794,
        "lon": 90.83132668919393,
        "alt_km": 789.5168885208641,
        "timestamp": "2025-12-10T23:33:13.215356+00:00",
        "meta_object_name": "COSMOS 2251 DEB",
        "meta_object_id": "1993-036BJV",
        "meta_epoch": "2025-12-10T14:37:05.458080",
        "meta_mean_motion": 14.36123744,
        "meta_eccentricity": 0.00502796,
        "meta_inclination": 73.8703,
        "meta_ra_of_asc_node": 294.4681,
        "meta_arg_of_pericenter": 255.1941,
        "meta_mean_anomaly": 104.3638,
        "meta_ephemeris_type": 0,
        "meta_classification_type": "U",
        "meta_norad_cat_id": 37305,
        "meta_element_set_no": 999,
        "meta_rev_at_epoch": 66836,
        "meta_bstar": 0.0011247022,
        "meta_mean_motion_dot": 3.297e-05,
        "meta_mean_motion_ddot": 0,
        "tle_line1": "1 37305U 93036BJV 25344.60909095  .00003297  00000+0  11247-2 0  9992",
        "tle_line2": "2 37305  73.8703 294.4681 0050279 255.1941 104.3638 14.36123744668361"
      },
      "geometry": {
        "type": "Point",
        "coordinates": [
          90.83132668919393,
          53.41516363182794
        ]
      }
    },
    {
      "type": "Feature",
      "properties": {
        "norad_id": 37312,
        "name": "COSMOS 2251 DEB",
        "group": "cosmos-2251-debris",
        "lat": 69.40927516793253,
        "lon": -22.19318569558602,
        "alt_km": 742.8220832670859,
        "timestamp": "2025-12-10T23:33:13.215367+00:00",
        "meta_object_name": "COSMOS 2251 DEB",
        "meta_object_id": "1993-036BKC",
        "meta_epoch": "2025-12-09T00:35:23.995392",
        "meta_mean_motion": 14.46107555,
        "meta_eccentricity": 0.00182852,
        "meta_inclination": 74.0311,
        "meta_ra_of_asc_node": 211.115,
        "meta_arg_of_pericenter": 314.7028,
        "meta_mean_anomaly": 45.264,
        "meta_ephemeris_type": 0,
        "meta_classification_type": "U",
        "meta_norad_cat_id": 37312,
        "meta_element_set_no": 999,
        "meta_rev_at_epoch": 86110,
        "meta_bstar": 0.00057614872,
        "meta_mean_motion_dot": 2.035e-05,
        "meta_mean_motion_ddot": 0,
        "tle_line1": "1 37312U 93036BKC 25343.02458328  .00002035  00000+0  57615-3 0  9992",
        "tle_line2": "2 37312  74.0311 211.1150 0018285 314.7028  45.2640 14.46107555861109"
      },
      "geometry": {
        "type": "Point",
        "coordinates": [
          -22.19318569558602,
          69.40927516793253
        ]
      }
    },
    {
      "type": "Feature",
      "properties": {
        "norad_id": 37316,
        "name": "COSMOS 2251 DEB",
        "group": "cosmos-2251-debris",
        "lat": -4.299577063130063,
        "lon": 23.382585311693436,
        "alt_km": 590.3934066223646,
        "timestamp": "2025-12-10T23:33:13.215376+00:00",
        "meta_object_name": "COSMOS 2251 DEB",
        "meta_object_id": "1993-036BKG",
        "meta_epoch": "2025-12-10T02:41:09.662496",
        "meta_mean_motion": 14.9431335,
        "meta_eccentricity": 0.00294662,
        "meta_inclination": 74.0196,
        "meta_ra_of_asc_node": 26.3697,
        "meta_arg_of_pericenter": 95.7328,
        "meta_mean_anomaly": 264.7217,
        "meta_ephemeris_type": 0,
        "meta_classification_type": "U",
        "meta_norad_cat_id": 37316,
        "meta_element_set_no": 999,
        "meta_rev_at_epoch": 86104,
        "meta_bstar": 0.0028761908,
        "meta_mean_motion_dot": 0.0003128,
        "meta_mean_motion_ddot": 0,
        "tle_line1": "1 37316U 93036BKG 25344.11191739  .00031280  00000+0  28762-2 0  9991",
        "tle_line2": "2 37316  74.0196  26.3697 0029466  95.7328 264.7217 14.94313350861044"
      },
      "geometry": {
        "type": "Point",
        "coordinates": [
          23.382585311693436,
          -4.299577063130063
        ]
      }
    }
  ]
}